0 FENGYUN 1C DEB
1 30276U 99025YM  13282.47662689  .00001843  00000-0  10693-2 0  5899
2 30276 098.9479 254.7211 0031761 113.0448 015.1201 14.09769206345979
0 FENGYUN 1C DEB
1 30276U 99025YM  13283.88395382  .00001894  00000-0  10983-2 0  5908
2 30276 098.9480 256.1200 0031836 109.1825 317.4435 14.09773186346175
0 FENGYUN 1C DEB
1 30276U 99025YM  13285.39302494  .00001464  00000-0  85448-3 0  5911
2 30276 098.9483 257.6203 0031902 105.1032 056.0941 14.09780328346384
0 FENGYUN 1C DEB
1 30276U 99025YM  13287.38007355  .00001600  00000-0  93099-3 0  5924
2 30276 098.9486 259.5956 0032013 099.6790 060.6286 14.09787403346660
0 FENGYUN 1C DEB
1 30276U 99025YM  13289.43792897  .00001756  00000-0  10194-2 0  5931
2 30276 098.9487 261.6407 0032176 094.0974 064.5495 14.09797271346950
0 FENGYUN 1C DEB
1 30276U 99025YM  13291.42438256  .00002082  00000-0  12040-2 0  5945
2 30276 098.9492 263.6154 0032190 088.7651 066.1052 14.09802953347238
0 FENGYUN 1C DEB
1 30276U 99025YM  13293.18109036  .00002632  00000-0  15149-2 0  5956
2 30276 098.9489 265.3616 0032106 083.8436 341.9172 14.09808133347480
0 FENGYUN 1C DEB
1 30276U 99025YM  13294.40485237  .00002950  00000-0  16944-2 0  5960
2 30276 098.9493 266.5783 0032143 080.5473 072.7593 14.09813856347652
0 FENGYUN 1C DEB
1 30276U 99025YM  13295.87092873  .00002967  00000-0  17042-2 0  5971
2 30276 098.9497 268.0360 0032176 076.5348 313.4923 14.09821820347861
